GLOBALSTAR M067         
1 32263U 07048A   25052.34338586 -.00000045  00000+0  39208-3 0  9993
2 32263  51.9752  14.8990 0001258  88.7520  67.6500 12.40666565795101
GLOBALSTAR M070         
1 32264U 07048B   25052.44142367 -.00000075  00000+0  15833-3 0  9996
2 32264  51.9744 121.1117 0000620 142.0226 231.3556 12.62312433799050
GLOBALSTAR M066         
1 32265U 07048C   25052.59465855 -.00000083  00000+0  10482-3 0  9997
2 32265  51.9698   0.2935 0000676 358.9197 178.8978 12.37190735801014
GLOBALSTAR M068         
1 32266U 07048D   25052.38004177 -.00000053  00000+0  27997-3 0  9997
2 32266  51.9888 295.2774 0000212 191.3198 340.9944 12.62815833802926
GLOBALSTAR M074         
1 37189U 10054B   25052.50526846 -.00000085  00000+0  10204-3 0  9991
2 37189  52.0012 131.2832 0000831 123.2516 250.2331 12.62266593662453
GLOBALSTAR M076         
1 37190U 10054C   25052.55188524 -.00000094  00000+0  53562-4 0  9990
2 37190  52.0024 131.2983 0001006 107.9962 359.7272 12.62277872662534
GLOBALSTAR M077         
1 37191U 10054D   25052.62309942 -.00000094  00000+0  55837-4 0  9995
2 37191  52.0066  87.9073 0000480 118.4940  10.9008 12.62271179662555
